COSMOS 2251 DEB         
1 35284U 93036AJN 17345.00449164  .00000067  00000-0  32213-4 0  9999
2 35284  74.0496 231.3993 0017912 312.3622 108.2980 14.35817095235442
